#dP2019  4  5  0  0  0.00000000      96 __u+U ITR00 FIT  IAC
## 2047 432000.00000000   900.00000000 58578 0.0000000000000
+   91   C02C03C05C06C07C08C09C10C11C12C13C14C16E01E02E03E04
+        E05E07E08E09E11E12E13E14E15E18E19E21E24E25E26E27E30
+        E31E36G01G02G03G04G05G06G07G08G09G10G11G12G13G14G15
+        G16G17G18G19G20G21G22G23G24G25G26G27G28G29G30G31G32
+        R01R02R03R04R05R07R08R09R10R11R13R14R15R16R17R18R19
+        R20R21R22R23R24R26  0  0  0  0  0  0  0  0  0  0  0
++        11 12 11  8  9  9  8  8  8  8  8  9  8  5  5  6  6
++         5  5  5  5  5  5  6  6  6  5  5  5  5  5  5  6  5
++         6  6  3  3  3  4  4  3  4  4  4  4  4  3  4  3  4
++         4  4  4  3  4  4  3  4  4  3  4  4  3  4  4  3  4
++         5  6  5  5  5  5  6  5  6  6  5  5  5  6  6  6  6
++         5  5  5  5  6  8  0  0  0  0  0  0  0  0  0  0  0
%c M  cc GPS ccc cccc cccc cccc cccc ccccc ccccc ccccc ccccc
%c cc cc ccc ccc cccc cccc cccc cccc ccccc ccccc ccccc ccccc
%f  0.0000000  0.000000000  0.00000000000  0.000000000000000
%f  0.0000000  0.000000000  0.00000000000  0.000000000000000
%i    0    0    0    0      0      0      0      0         0
%i    0    0    0    0      0      0      0      0         0
/*                                                          
/*   RSA / INFORMATION & ANALYSIS CENTER (IAC) OF MCC       
/*   ULTRA-RAPID DETERMINATION                              
/* PCV:IGS14_2038 OL/AL:FES2004  NONE     YN ORB:CoN CLK:CoN
*  2019 04 05  4 15  0.00000000
PC02   4340.057984  41902.218082  -1217.506583   -420.242162
PC03 -14732.662877  39470.578073   -242.861418     69.961027
PC05  21940.891678  35968.956433  -1319.198203   -200.745911
PC06 -17520.390764  37806.797937  -4621.051068    633.533541
PC07  -8174.882883  27045.883772  31529.150791     58.733851
PC08 -24269.121369  21420.641960 -27077.292467    140.777284
PC09  -8342.146057  39783.580085  10722.114227    661.038771
PC10   4893.713713  33569.629613  25401.635016   -635.701681
PC11 -16029.381629  21901.987750  -6550.874147    -85.703365
PC12 -20867.927608   3970.414108  18201.796545    550.615094
PC13  -8176.131429  24360.421358 -33427.994013   -634.086199
PC14 -11659.702083  13669.142052 -21274.474542    704.814161
PC16 -14184.015427  39612.052265   -277.276708   -493.568365
PE01 -17825.634368 -21539.251727  -9728.888891   -577.014704
PE02  17862.656660  21519.278338   9672.355629     54.534272
PE03   7269.640656  24754.119622  14525.205955   -151.697730
PE04 -16284.470800  -6361.496351 -23878.480453   -254.860872
PE05  -6077.511009  28766.753218  -3416.897094     79.581124
PE07  15820.014161 -15932.211409  19295.169140   -162.613160
PE08  16221.705151   6114.717964  23999.648522   6377.423653
PE09 -15556.570929  16120.165486 -19345.061496   6479.069978
PE11 -26198.736438  13449.318667  -2847.090893   5710.141037
PE12 -25114.701243   -455.926484  15647.758366   6460.079281
PE13  26215.306995 -13495.310831   2694.168746    385.167601
PE14  22067.796906   1082.242673 -23706.357649   -517.199317
PE15  25280.385138     -6.201968 -15394.082235    914.878489
PE18 -17806.013754   5384.926728  14880.418551   -616.670830
PE19  -6004.506524 -25897.982077 -13015.470567     -7.283863
PE21    609.724510 -18572.816783 -23048.167277   -527.515229
PE24 -18325.693924   4941.560499  22702.709220   6149.029971
PE25   -657.925027  18545.372428  23059.351820   1844.244082
PE26  11937.401369 -19149.945246  19166.502420   4718.532718
PE27  18555.046676  -4677.492796 -22584.869581    496.370520
PE30  25537.325936  11792.753503  -9212.837015   4976.693913
PE31 -25589.350479 -11939.293656   8875.718052    865.266942
PE36 -11796.844455  19118.519150 -19257.732599    728.063666
PG01  10684.718576  13492.490343 -20491.655671   -195.097279
PG02  13379.431095 -14499.325575  18311.687386   -181.157714
PG03  12077.840743  23452.896865  -3463.942934    187.867000
PG04  16174.743039   1233.061022  21044.730539    144.433777
PG05   3241.742978 -18715.729694  18363.328787      1.159640
PG06  23747.285420  -7479.893642   9341.958387    238.525352
PG07  22834.615369   7734.863785  11904.380004      1.343020
PG08  -3884.251085  23913.068408 -10608.003802   -138.747732
PG09  13444.970185   7451.335808  21617.432419    434.083329
PG10 -17640.834705  -2023.086758 -19751.830851     80.734444
PG11   5245.283713  15889.308561 -21178.198267   -632.449822
PG12  -9858.441351 -24377.681372  -4591.735108    254.057594
PG13  12188.347564 -23171.665226  -4451.939150    -69.049907
PG14 -18233.648882  16303.474706  -9807.691386    -85.710050
PG15    -87.413832 -23620.398922 -12008.568845   -320.032664
PG16  -3422.156326  19034.081599  17812.476657    -30.365036
PG17  18146.595407  -8736.151822 -16863.771582     34.186548
PG18    -67.960828  15654.427209 -21937.555442     41.245852
PG19  18858.498116 -15366.490272 -11067.107970   -334.328693
PG20 -20921.707880  -9982.503090 -13198.024839    523.710020
PG21 -24881.053013  -3945.545299   8990.330405   -218.732915
PG22   7375.001002  23176.822854 -10504.396980   -677.784751
PG23   6109.544204  18068.808618  18638.906123   -191.424799
PG24  -6820.485440 -14878.087601 -21118.501177    -64.340823
PG25 -17340.132036 -19192.644859   6400.572868   -741.850743
PG26 -11115.838808  10894.650503  21488.419016    167.706914
PG27 -11782.255944  23614.350418   -531.430310   -101.328014
PG28  16894.196598   4555.163118 -19346.844208    767.176618
PG29  -8853.591285 -12846.112361  21467.880531    232.976136
PG30  26644.503074    546.523101    777.382942    -80.840831
PG31 -23463.809458   7641.536731  10389.179316     47.263220
PG32 -18102.205278  11996.443081 -15166.211514   -147.496179
PR01   6748.877418 -17310.145939  17474.725793     41.851402
PR02  -2580.560803 -25381.059128  -1072.627290    362.157794
PR03  -9503.355712 -16513.925334 -16941.614013     -6.766081
PR04 -10758.935345   2564.788566 -22965.776169    301.247049
PR05  -5846.453331  19066.267443 -15879.822866     25.498314
PR07   9657.520761  15982.048353  17395.989116    -17.725021
PR08  10877.905079  -1747.920365  23060.706629     18.370363
PR09  10267.958799  14679.718687  18197.462328     62.773483
PR10  21396.386050  13001.787153   5061.386775     46.928892
PR11  21795.563368   3496.856237 -12811.833387    -61.944016
PR13  -8937.760832 -14120.267109 -19294.357925    -22.093316
PR14 -21466.232742 -12831.193288  -4993.180453     37.606941
PR15 -22056.189988  -4122.031527  12152.589555    101.114236
PR16  -9948.646639   7278.129637  22320.542133     10.402226
PR17 -11148.167102  -4825.856662  22445.495581    217.739470
PR18 -20923.894457   7521.803808  12457.528406    -11.489915
PR19 -19865.407025  15388.763863  -4361.050340    -23.771923
PR20  -5838.769332  14582.213988 -20068.776497   -373.952846
PR21  11566.639793   4350.896128 -22307.996473    -40.582675
PR22  21615.334929  -9243.288010 -10056.533977    -12.933563
PR23  16922.150676 -16655.277118   9332.003500    219.738639
PR24   4054.442047 -14133.527919  20829.229211   -178.996772
PR26  -7818.508983  15544.725562 -18645.717399      5.330098
EOF
